{"type": "FeatureCollection", "features": [{"type": "Feature", "properties": {"norad_id": 25590, "name": "COSMOS 2361", "group": "musson", "lat": -48.0658692974915, "lon": 162.7169146313365, "alt_km": 972.5191780471278, "timestamp": "2025-12-25T07:41:09.992837+00:00", "meta": {"OBJECT_NAME": "COSMOS 2361", "OBJECT_ID": "1998-076A", "EPOCH": "2025-12-24T22:06:25.566336", "MEAN_MOTION": 13.73218834, "ECCENTRICITY": 0.00303123, "INCLINATION": 82.9345, "RA_OF_ASC_NODE": 335.0765, "ARG_OF_PERICENTER": 230.3469, "MEAN_ANOMALY": 186.1312, "EPHEMERIS_TYPE": 0, "CLASSIFICATION_TYPE": "U", "NORAD_CAT_ID": 25590, "ELEMENT_SET_NO": 999, "REV_AT_EPOCH": 35278, "BSTAR": 5.2732414e-05, "MEAN_MOTION_DOT": 6.4e-07, "MEAN_MOTION_DDOT": 0}, "tle": {"line1": "1 25590U 98076A   25358.92112924  .00000064  00000+0  52732-4 0  9996", "line2": "2 25590  82.9345 335.0765 0030312 230.3469 186.1312 13.73218834352786"}}, "geometry": {"type": "Point", "coordinates": [162.7169146313365, -48.0658692974915]}}, {"type": "Feature", "properties": {"norad_id": 26818, "name": "COSMOS 2378", "group": "musson", "lat": -17.01462883094539, "lon": -11.781214774865218, "alt_km": 1013.8172745908078, "timestamp": "2025-12-25T07:41:09.992858+00:00", "meta": {"OBJECT_NAME": "COSMOS 2378", "OBJECT_ID": "2001-023A", "EPOCH": "2025-12-24T18:37:53.800032", "MEAN_MOTION": 13.74142959, "ECCENTRICITY": 0.00331574, "INCLINATION": 82.9272, "RA_OF_ASC_NODE": 350.7992, "ARG_OF_PERICENTER": 171.1572, "MEAN_ANOMALY": 2.4655, "EPHEMERIS_TYPE": 0, "CLASSIFICATION_TYPE": "U", "NORAD_CAT_ID": 26818, "ELEMENT_SET_NO": 999, "REV_AT_EPOCH": 23088, "BSTAR": 3.8839071e-05, "MEAN_MOTION_DOT": 5.2e-07, "MEAN_MOTION_DDOT": 0}, "tle": {"line1": "1 26818U 01023A   25358.77631713  .00000052  00000+0  38839-4 0  9990", "line2": "2 26818  82.9272 350.7992 0033157 171.1572   2.4655 13.74142959230883"}}, "geometry": {"type": "Point", "coordinates": [-11.781214774865218, -17.01462883094539]}}, {"type": "Feature", "properties": {"norad_id": 27436, "name": "COSMOS 2389", "group": "musson", "lat": -54.81249424864164, "lon": 127.77816157886988, "alt_km": 1018.4228931625184, "timestamp": "2025-12-25T07:41:09.992871+00:00", "meta": {"OBJECT_NAME": "COSMOS 2389", "OBJECT_ID": "2002-026A", "EPOCH": "2025-12-24T22:06:49.894848", "MEAN_MOTION": 13.75155957, "ECCENTRICITY": 0.00470943, "INCLINATION": 82.9513, "RA_OF_ASC_NODE": 297.9673, "ARG_OF_PERICENTER": 27.4918, "MEAN_ANOMALY": 34.7494, "EPHEMERIS_TYPE": 0, "CLASSIFICATION_TYPE": "U", "NORAD_CAT_ID": 27436, "ELEMENT_SET_NO": 999, "REV_AT_EPOCH": 18316, "BSTAR": 6.8126465e-05, "MEAN_MOTION_DOT": 8.1e-07, "MEAN_MOTION_DDOT": 0}, "tle": {"line1": "1 27436U 02026A   25358.92141082  .00000081  00000+0  68126-4 0  9997", "line2": "2 27436  82.9513 297.9673 0047094  27.4918  34.7494 13.75155957183168"}}, "geometry": {"type": "Point", "coordinates": [127.77816157886988, -54.81249424864164]}}, {"type": "Feature", "properties": {"norad_id": 27818, "name": "COSMOS 2398", "group": "musson", "lat": 62.077650814450095, "lon": -83.0654891143699, "alt_km": 961.7137261291455, "timestamp": "2025-12-25T07:41:09.992883+00:00", "meta": {"OBJECT_NAME": "COSMOS 2398", "OBJECT_ID": "2003-023A", "EPOCH": "2025-12-24T21:14:05.590752", "MEAN_MOTION": 13.72387025, "ECCENTRICITY": 0.00327049, "INCLINATION": 82.9482, "RA_OF_ASC_NODE": 263.7489, "ARG_OF_PERICENTER": 79.4671, "MEAN_ANOMALY": 353.335, "EPHEMERIS_TYPE": 0, "CLASSIFICATION_TYPE": "U", "NORAD_CAT_ID": 27818, "ELEMENT_SET_NO": 999, "REV_AT_EPOCH": 12983, "BSTAR": 6.8522529e-05, "MEAN_MOTION_DOT": 7.8e-07, "MEAN_MOTION_DDOT": 0}, "tle": {"line1": "1 27818U 03023A   25358.88478693  .00000078  00000+0  68523-4 0  9992", "line2": "2 27818  82.9482 263.7489 0032704  79.4671 353.3350 13.72387025129833"}}, "geometry": {"type": "Point", "coordinates": [-83.0654891143699, 62.077650814450095]}}, {"type": "Feature", "properties": {"norad_id": 28380, "name": "COSMOS 2407", "group": "musson", "lat": 75.06748745883753, "lon": -128.81629963139642, "alt_km": 953.6039558943639, "timestamp": "2025-12-25T07:41:09.992895+00:00", "meta": {"OBJECT_NAME": "COSMOS 2407", "OBJECT_ID": "2004-028A", "EPOCH": "2025-12-24T20:54:03.918816", "MEAN_MOTION": 13.76314966, "ECCENTRICITY": 0.00397506, "INCLINATION": 82.9594, "RA_OF_ASC_NODE": 203.9106, "ARG_OF_PERICENTER": 21.6844, "MEAN_ANOMALY": 349.4802, "EPHEMERIS_TYPE": 0, "CLASSIFICATION_TYPE": "U", "NORAD_CAT_ID": 28380, "ELEMENT_SET_NO": 999, "REV_AT_EPOCH": 7590, "BSTAR": 3.5455867e-05, "MEAN_MOTION_DOT": 5e-07, "MEAN_MOTION_DDOT": 0}, "tle": {"line1": "1 28380U 04028A   25358.87087869  .00000050  00000+0  35456-4 0  9992", "line2": "2 28380  82.9594 203.9106 0039750  21.6844 349.4802 13.76314966 75907"}}, "geometry": {"type": "Point", "coordinates": [-128.81629963139642, 75.06748745883753]}}, {"type": "Feature", "properties": {"norad_id": 28521, "name": "COSMOS 2414", "group": "musson", "lat": 35.208670504164125, "lon": -9.863874010088304, "alt_km": 910.2034187087256, "timestamp": "2025-12-25T07:41:09.992906+00:00", "meta": {"OBJECT_NAME": "COSMOS 2414", "OBJECT_ID": "2005-002A", "EPOCH": "2025-12-24T22:20:42.993888", "MEAN_MOTION": 13.87904494, "ECCENTRICITY": 0.00414128, "INCLINATION": 82.9488, "RA_OF_ASC_NODE": 175.4409, "ARG_OF_PERICENTER": 105.8782, "MEAN_ANOMALY": 254.6951, "EPHEMERIS_TYPE": 0, "CLASSIFICATION_TYPE": "U", "NORAD_CAT_ID": 28521, "ELEMENT_SET_NO": 999, "REV_AT_EPOCH": 5964, "BSTAR": 4.3942467e-05, "MEAN_MOTION_DOT": 6.9e-07, "MEAN_MOTION_DDOT": 0}, "tle": {"line1": "1 28521U 05002A   25358.93105317  .00000069  00000+0  43942-4 0  9997", "line2": "2 28521  82.9488 175.4409 0041412 105.8782 254.6951 13.87904494 59647"}}, "geometry": {"type": "Point", "coordinates": [-9.863874010088304, 35.208670504164125]}}, {"type": "Feature", "properties": {"norad_id": 32052, "name": "COSMOS 2429", "group": "musson", "lat": 60.76171676130721, "lon": -13.251065672067218, "alt_km": 960.2972778793628, "timestamp": "2025-12-25T07:41:09.992916+00:00", "meta": {"OBJECT_NAME": "COSMOS 2429", "OBJECT_ID": "2007-038A", "EPOCH": "2025-12-24T22:39:31.039200", "MEAN_MOTION": 13.75150587, "ECCENTRICITY": 0.00385165, "INCLINATION": 82.9808, "RA_OF_ASC_NODE": 334.3115, "ARG_OF_PERICENTER": 4.2546, "MEAN_ANOMALY": 355.893, "EPHEMERIS_TYPE": 0, "CLASSIFICATION_TYPE": "U", "NORAD_CAT_ID": 32052, "ELEMENT_SET_NO": 999, "REV_AT_EPOCH": 91770, "BSTAR": 5.0012705e-05, "MEAN_MOTION_DOT": 6.3e-07, "MEAN_MOTION_DDOT": 0}, "tle": {"line1": "1 32052U 07038A   25358.94410925  .00000063  00000+0  50013-4 0  9998", "line2": "2 32052  82.9808 334.3115 0038516   4.2546 355.8930 13.75150587917702"}}, "geometry": {"type": "Point", "coordinates": [-13.251065672067218, 60.76171676130721]}}, {"type": "Feature", "properties": {"norad_id": 35635, "name": "COSMOS 2454", "group": "musson", "lat": -72.86045676982127, "lon": 135.47204310627072, "alt_km": 942.1385133012218, "timestamp": "2025-12-25T07:41:09.992927+00:00", "meta": {"OBJECT_NAME": "COSMOS 2454", "OBJECT_ID": "2009-039A", "EPOCH": "2025-12-24T22:11:29.584608", "MEAN_MOTION": 13.89930133, "ECCENTRICITY": 0.00200064, "INCLINATION": 82.9558, "RA_OF_ASC_NODE": 159.4081, "ARG_OF_PERICENTER": 40.893, "MEAN_ANOMALY": 66.6302, "EPHEMERIS_TYPE": 0, "CLASSIFICATION_TYPE": "U", "NORAD_CAT_ID": 35635, "ELEMENT_SET_NO": 999, "REV_AT_EPOCH": 83319, "BSTAR": 5.1021077e-05, "MEAN_MOTION_DOT": 7.9e-07, "MEAN_MOTION_DDOT": 0}, "tle": {"line1": "1 35635U 09039A   25358.92464797  .00000079  00000+0  51021-4 0  9992", "line2": "2 35635  82.9558 159.4081 0020006  40.8930  66.6302 13.89930133833198"}}, "geometry": {"type": "Point", "coordinates": [135.47204310627072, -72.86045676982127]}}, {"type": "Feature", "properties": {"norad_id": 36519, "name": "COSMOS 2463", "group": "musson", "lat": -38.87808432622727, "lon": -156.81515115226205, "alt_km": 978.4677979704929, "timestamp": "2025-12-25T07:41:09.992938+00:00", "meta": {"OBJECT_NAME": "COSMOS 2463", "OBJECT_ID": "2010-017A", "EPOCH": "2025-12-24T19:12:31.795200", "MEAN_MOTION": 13.71650172, "ECCENTRICITY": 0.00348008, "INCLINATION": 82.9603, "RA_OF_ASC_NODE": 17.8492, "ARG_OF_PERICENTER": 253.3433, "MEAN_ANOMALY": 280.281, "EPHEMERIS_TYPE": 0, "CLASSIFICATION_TYPE": "U", "NORAD_CAT_ID": 36519, "ELEMENT_SET_NO": 999, "REV_AT_EPOCH": 78402, "BSTAR": 3.1141472e-05, "MEAN_MOTION_DOT": 4.3e-07, "MEAN_MOTION_DDOT": 0}, "tle": {"line1": "1 36519U 10017A   25358.80036800  .00000043  00000+0  31141-4 0  9991", "line2": "2 36519  82.9603  17.8492 0034800 253.3433 280.2810 13.71650172784028"}}, "geometry": {"type": "Point", "coordinates": [-156.81515115226205, -38.87808432622727]}}]}